AAU-CUBESAT             
1 27846U 03031G   21305.22046337  .00000123  00000-0  75087-4 0  9999
2 27846  98.6865 310.0553 0009761  23.3511 336.8109 14.22351587951469

CUBESAT XI-V            
1 28895U 05043F   21305.60268674  .00000512  00000-0  10653-3 0  9990
2 28895  98.0783  76.0012 0017686 135.8439 224.4179 14.63993077854078

KSU-CUBESAT             
1 47954U 21022Y   21305.51737100  .00002441  00000-0  17048-3 0  9995
2 47954  97.5460 204.8841 0020678 199.1836 160.8615 15.06102182 33402

AAUSAT-II               
1 32788U 08021F   21305.43198871  .00002212  00000-0  20251-3 0  9991
2 32788  97.5150 294.4414 0011885 163.3825 196.7788 14.95886223734330

NANOSATC-BR2            
1 47950U 21022U   21305.49883699  .00002846  00000-0  19850-3 0  9995
2 47950  97.5418 204.7550 0020773 202.6763 331.7169 15.06025941 33671

NANOSATC-BR1            
1 40024U 14033Q   21305.51600562  .00001698  00000-0  17892-3 0  9991
2 40024  97.9606 241.7168 0013533  79.1859 281.0881 14.90645568400013

PHOENIX                 
1 45258U 98067RB  21305.54116458  .00029577  00000-0  35360-3 0  9999
2 45258  51.6390   1.2425 0006416  40.3536 319.7932 15.60724168 96584

CP11 (ISX)              
1 43856U 18104H   21304.97495457  .00005534  00000-0  23692-3 0  9992
2 43856  85.0368 204.6807 0016140  52.8510 307.4204 15.22438319159696

NANOSATC-BR1            
1 40024U 14033Q   21305.51600562  .00001698  00000-0  17892-3 0  9991
2 40024  97.9606 241.7168 0013533  79.1859 281.0881 14.90645568400013

TSURU                   
1 47927U 98067SD  21305.31473435  .00031575  00000-0  46421-3 0  9991
2 47927  51.6428  19.2891 0000506 159.0292 201.0720 15.55177749 36042